{"type": "FeatureCollection", "features": [ {"type": "Feature", "properties": {"norad_id": 67011, "name": "STARLINK-36167", "group": "last-30-days", "lat": -62.15156996580041, "lon": -121.75657295780141, "alt_km": 362.43259387107173, "timestamp": "2025-12-27T06:41:29.621851+00:00", "meta": {"OBJECT_NAME": "STARLINK-36167", "OBJECT_ID": "2025-293J", "EPOCH": "2025-12-26T22:00:01.999584", "MEAN_MOTION": 15.71543694, "ECCENTRICITY": 0.00040911, "INCLINATION": 69.9973, "RA_OF_ASC_NODE": 282.8548, "ARG_OF_PERICENTER": 268.8722, "MEAN_ANOMALY": 133.6694, "EPHEMERIS_TYPE": 0, "CLASSIFICATION_TYPE": "U", "NORAD_CAT_ID": 67011, "ELEMENT_SET_NO": 999, "REV_AT_EPOCH": 238, "BSTAR": -0.01447878, "MEAN_MOTION_DOT": -0.01652578, "MEAN_MOTION_DDOT": 0}, "tle": {"line1": "1 67011U 25293J   25360.91668981 -.01652578  00000+0 -14479-1 0  9991", "line2": "2 67011  69.9973 282.8548 0004091 268.8722 133.6694 15.71543694  2386"}}, "geometry": {"type": "Point", "coordinates": [-121.75657295780141, -62.15156996580041]}}, {"type": "Feature", "properties": {"norad_id": 67012, "name": "STARLINK-36175", "group": "last-30-days", "lat": -58.969880501475934, "lon": -115.4383658871677, "alt_km": 362.7143936719822, "timestamp": "2025-12-27T06:41:29.621861+00:00", "meta": {"OBJECT_NAME": "STARLINK-36175", "OBJECT_ID": "2025-293K", "EPOCH": "2025-12-26T22:00:01.999584", "MEAN_MOTION": 15.71552579, "ECCENTRICITY": 0.00038309, "INCLINATION": 69.9972, "RA_OF_ASC_NODE": 282.8499, "ARG_OF_PERICENTER": 269.2051, "MEAN_ANOMALY": 137.8026, "EPHEMERIS_TYPE": 0, "CLASSIFICATION_TYPE": "U", "NORAD_CAT_ID": 67012, "ELEMENT_SET_NO": 999, "REV_AT_EPOCH": 238, "BSTAR": -0.01492095, "MEAN_MOTION_DOT": -0.01697506, "MEAN_MOTION_DDOT": 0}, "tle": {"line1": "1 67012U 25293K   25360.91668981 -.01697506  00000+0 -14921-1 0  9994", "line2": "2 67012  69.9972 282.8499 0003830 269.2051 137.8026 15.71552579  2388"}}, "geometry": {"type": "Point", "coordinates": [-115.4383658871677, -58.969880501475934]}}, {"type": "Feature", "properties": {"norad_id": 67013, "name": "STARLINK-35856", "group": "last-30-days", "lat": -57.197942408511054, "lon": -112.5906973802771, "alt_km": 362.9162109384797, "timestamp": "2025-12-27T06:41:29.621871+00:00", "meta": {"OBJECT_NAME": "STARLINK-35856", "OBJECT_ID": "2025-293L", "EPOCH": "2025-12-26T22:00:01.999584", "MEAN_MOTION": 15.71502471, "ECCENTRICITY": 0.00036022, "INCLINATION": 69.9971, "RA_OF_ASC_NODE": 282.8464, "ARG_OF_PERICENTER": 271.2583, "MEAN_ANOMALY": 138.1346, "EPHEMERIS_TYPE": 0, "CLASSIFICATION_TYPE": "U", "NORAD_CAT_ID": 67013, "ELEMENT_SET_NO": 999, "REV_AT_EPOCH": 238, "BSTAR": -0.014751448, "MEAN_MOTION_DOT": -0.01677082, "MEAN_MOTION_DDOT": 0}, "tle": {"line1": "1 67013U 25293L   25360.91668981 -.01677082  00000+0 -14751-1 0  9993", "line2": "2 67013  69.9971 282.8464 0003602 271.2583 138.1346 15.71502471  2385"}}, "geometry": {"type": "Point", "coordinates": [-112.5906973802771, -57.197942408511054]}}, {"type": "Feature", "properties": {"norad_id": 67014, "name": "STARLINK-36207", "group": "last-30-days", "lat": -55.43608832472849, "lon": -110.09681710926877, "alt_km": 362.936981315469, "timestamp": "2025-12-27T06:41:29.621883+00:00", "meta": {"OBJECT_NAME": "STARLINK-36207", "OBJECT_ID": "2025-293M", "EPOCH": "2025-12-26T22:00:01.999584", "MEAN_MOTION": 15.71512268, "ECCENTRICITY": 0.00037177, "INCLINATION": 69.9978, "RA_OF_ASC_NODE": 282.8442, "ARG_OF_PERICENTER": 268.7729, "MEAN_ANOMALY": 142.8612, "EPHEMERIS_TYPE": 0, "CLASSIFICATION_TYPE": "U", "NORAD_CAT_ID": 67014, "ELEMENT_SET_NO": 999, "REV_AT_EPOCH": 244, "BSTAR": -0.01496521, "MEAN_MOTION_DOT": -0.01699277, "MEAN_MOTION_DDOT": 0}, "tle": {"line1": "1 67014U 25293M   25360.91668981 -.01699277  00000+0 -14965-1 0  9991", "line2": "2 67014  69.9978 282.8442 0003717 268.7729 142.8612 15.71512268  2449"}}, "geometry": {"type": "Point", "coordinates": [-110.09681710926877, -55.43608832472849]}}, {"type": "Feature", "properties": {"norad_id": 67015, "name": "STARLINK-36093", "group": "last-30-days", "lat": -51.8098994705116, "lon": -105.76755405636584, "alt_km": 363.1216696753636, "timestamp": "2025-12-27T06:41:29.621895+00:00", "meta": {"OBJECT_NAME": "STARLINK-36093", "OBJECT_ID": "2025-293N", "EPOCH": "2025-12-26T22:00:01.999584", "MEAN_MOTION": 15.71477567, "ECCENTRICITY": 0.00036178, "INCLINATION": 69.997, "RA_OF_ASC_NODE": 282.8388, "ARG_OF_PERICENTER": 268.1425, "MEAN_ANOMALY": 147.9851, "EPHEMERIS_TYPE": 0, "CLASSIFICATION_TYPE": "U", "NORAD_CAT_ID": 67015, "ELEMENT_SET_NO": 999, "REV_AT_EPOCH": 238, "BSTAR": -0.014972347, "MEAN_MOTION_DOT": -0.01697694, "MEAN_MOTION_DDOT": 0}, "tle": {"line1": "1 67015U 25293N   25360.91668981 -.01697694  00000+0 -14972-1 0  9991", "line2": "2 67015  69.9970 282.8388 0003617 268.1425 147.9851 15.71477567  2383"}}, "geometry": {"type": "Point", "coordinates": [-105.76755405636584, -51.8098994705116]}}, {"type": "Feature", "properties": {"norad_id": 67016, "name": "STARLINK-36120", "group": "last-30-days", "lat": -53.70141105419306, "lon": -107.90914699252548, "alt_km": 362.98810402331037, "timestamp": "2025-12-27T06:41:29.621905+00:00", "meta": {"OBJECT_NAME": "STARLINK-36120", "OBJECT_ID": "2025-293P", "EPOCH": "2025-12-26T22:00:01.999584", "MEAN_MOTION": 15.71496082, "ECCENTRICITY": 0.00037719, "INCLINATION": 69.9972, "RA_OF_ASC_NODE": 282.8421, "ARG_OF_PERICENTER": 267.3897, "MEAN_ANOMALY": 146.4146, "EPHEMERIS_TYPE": 0, "CLASSIFICATION_TYPE": "U", "NORAD_CAT_ID": 67016, "ELEMENT_SET_NO": 999, "REV_AT_EPOCH": 238, "BSTAR": -0.0149452, "MEAN_MOTION_DOT": -0.01696291, "MEAN_MOTION_DDOT": 0}, "tle": {"line1": "1 67016U 25293P   25360.91668981 -.01696291  00000+0 -14945-1 0  9994", "line2": "2 67016  69.9972 282.8421 0003771 267.3897 146.4146 15.71496082  2383"}}, "geometry": {"type": "Point", "coordinates": [-107.90914699252548, -53.70141105419306]}}, {"type": "Feature", "properties": {"norad_id": 67017, "name": "STARLINK-35498", "group": "last-30-days", "lat": -49.95266024913573, "lon": -103.867879079887, "alt_km": 363.04197020109405, "timestamp": "2025-12-27T06:41:29.621915+00:00", "meta": {"OBJECT_NAME": "STARLINK-35498", "OBJECT_ID": "2025-293Q", "EPOCH": "2025-12-26T22:00:01.999584", "MEAN_MOTION": 15.71458808, "ECCENTRICITY": 0.00038148, "INCLINATION": 69.9968, "RA_OF_ASC_NODE": 282.8363, "ARG_OF_PERICENTER": 269.1262, "MEAN_ANOMALY": 149.2383, "EPHEMERIS_TYPE": 0, "CLASSIFICATION_TYPE": "U", "NORAD_CAT_ID": 67017, "ELEMENT_SET_NO": 999, "REV_AT_EPOCH": 258, "BSTAR": -0.014974272, "MEAN_MOTION_DOT": -0.01696873, "MEAN_MOTION_DDOT": 0}, "tle": {"line1": "1 67017U 25293Q   25360.91668981 -.01696873  00000+0 -14974-1 0  9993", "line2": "2 67017  69.9968 282.8363 0003814 269.1262 149.2383 15.71458808  2588"}}, "geometry": {"type": "Point", "coordinates": [-103.867879079887, -49.95266024913573]}}, {"type": "Feature", "properties": {"norad_id": 67018, "name": "STARLINK-36106", "group": "last-30-days", "lat": -48.06021896631134, "lon": -102.10578129242974, "alt_km": 363.13561385199864, "timestamp": "2025-12-27T06:41:29.621927+00:00", "meta": {"OBJECT_NAME": "STARLINK-36106", "OBJECT_ID": "2025-293R", "EPOCH": "2025-12-26T22:00:01.999584", "MEAN_MOTION": 15.71442483, "ECCENTRICITY": 0.00037352, "INCLINATION": 69.9969, "RA_OF_ASC_NODE": 282.8324, "ARG_OF_PERICENTER": 269.2229, "MEAN_ANOMALY": 151.3857, "EPHEMERIS_TYPE": 0, "CLASSIFICATION_TYPE": "U", "NORAD_CAT_ID": 67018, "ELEMENT_SET_NO": 999, "REV_AT_EPOCH": 249, "BSTAR": -0.014999745, "MEAN_MOTION_DOT": -0.01698311, "MEAN_MOTION_DDOT": 0}, "tle": {"line1": "1 67018U 25293R   25360.91668981 -.01698311  00000+0 -15000-1 0  9994", "line2": "2 67018  69.9969 282.8324 0003735 269.2229 151.3857 15.71442483  2495"}}, "geometry": {"type": "Point", "coordinates": [-102.10578129242974, -48.06021896631134]}}, {"type": "Feature", "properties": {"norad_id": 67019, "name": "STARLINK-35688", "group": "last-30-days", "lat": -46.21170103018663, "lon": -100.5260679948032, "alt_km": 363.2867587709188, "timestamp": "2025-12-27T06:41:29.621938+00:00", "meta": {"OBJECT_NAME": "STARLINK-35688", "OBJECT_ID": "2025-293S", "EPOCH": "2025-12-26T22:00:01.999584", "MEAN_MOTION": 15.71427966, "ECCENTRICITY": 0.00036358, "INCLINATION": 69.9967, "RA_OF_ASC_NODE": 282.8293, "ARG_OF_PERICENTER": 267.1912, "MEAN_ANOMALY": 155.5771, "EPHEMERIS_TYPE": 0, "CLASSIFICATION_TYPE": "U", "NORAD_CAT_ID": 67019, "ELEMENT_SET_NO": 999, "REV_AT_EPOCH": 258, "BSTAR": -0.015002545, "MEAN_MOTION_DOT": -0.01697577, "MEAN_MOTION_DDOT": 0}, "tle": {"line1": "1 67019U 25293S   25360.91668981 -.01697577  00000+0 -15003-1 0  9991", "line2": "2 67019  69.9967 282.8293 0003635 267.1912 155.5771 15.71427966  2584"}}, "geometry": {"type": "Point", "coordinates": [-100.5260679948032, -46.21170103018663]}}, {"type": "Feature", "properties": {"norad_id": 67020, "name": "STARLINK-36172", "group": "last-30-days", "lat": -44.088513662006, "lon": -98.85590797810204, "alt_km": 363.2817208649403, "timestamp": "2025-12-27T06:41:29.621950+00:00", "meta": {"OBJECT_NAME": "STARLINK-36172", "OBJECT_ID": "2025-293T", "EPOCH": "2025-12-26T22:00:01.999584", "MEAN_MOTION": 15.71400503, "ECCENTRICITY": 0.00037214, "INCLINATION": 69.9966, "RA_OF_ASC_NODE": 282.8273, "ARG_OF_PERICENTER": 268.3642, "MEAN_ANOMALY": 156.8712, "EPHEMERIS_TYPE": 0, "CLASSIFICATION_TYPE": "U", "NORAD_CAT_ID": 67020, "ELEMENT_SET_NO": 999, "REV_AT_EPOCH": 249, "BSTAR": -0.015022583, "MEAN_MOTION_DOT": -0.0169791, "MEAN_MOTION_DDOT": 0}, "tle": {"line1": "1 67020U 25293T   25360.91668981 -.01697910  00000+0 -15023-1 0  9996", "line2": "2 67020  69.9966 282.8273 0003721 268.3642 156.8712 15.71400503  2499"}}, "geometry": {"type": "Point", "coordinates": [-98.85590797810204, -44.088513662006]}}]}